# From MPC 29882
2P/Encke,e,11.7821,334.6644,186.4575,2.217006,0.2985753,0.847319,241.5918,08/10.0/1999,2000,g 11.5,6.0
# From MPC 27081
4P/Faye,e,9.0488,199.3387,204.9711,3.837179,0.1311252,0.568176,12.5742,08/10.0/1999,2000,g  8.0,6.0
# From MPC 27082
10P/Tempel 2,e,11.9766,118.2115,195.0202,3.105032,0.1801378,0.522813,354.7010,08/10.0/1999,2000,g  5.0,10.0
# From MPC 29882
14P/Wolf,e,27.5232,204.1226,162.2852,4.071154,0.1199852,0.407166,303.7456,08/10.0/1999,2000,g  5.5,12.0
# From MPC 29881
17P/Holmes,e,19.1871,328.0136,23.3132,3.683364,0.1394238,0.412016,321.5552,08/10.0/1999,2000,g 10.0,6.0
# From MPC 25184
21P/Giacobini-Zinner,e,31.8591,195.3981,172.5470,3.521457,0.1491491,0.706413,39.0308,08/10.0/1999,2000,g  9.0,6.0
# From MPC 31663
24P/Schaumasse,e,11.7485,79.8978,57.9695,4.074310,0.1198459,0.705179,284.2922,08/10.0/1999,2000,g  6.5,14.0
# From MPC 34424
28P/Neujmin 1,e,14.2111,347.0966,346.9495,6.913985,0.0542140,0.776283,293.0676,08/10.0/1999,2000,g  8.5,6.0
# From MPC 23105
29P/Schwassmann-Wachmann 1,e,9.3851,312.7827,48.1163,5.998609,0.0670854,0.045958,240.2690,08/10.0/1999,2000,g  4.0,4.0
# From MPC 34422
31P/Schwassmann-Wachmann 2,e,4.5026,116.6708,20.2774,4.203704,0.1143552,0.210865,256.3277,08/10.0/1999,2000,g  5.0,8.0
# From MPC 34736
37P/Forbes,e,7.1625,334.3676,310.7108,3.348802,0.1608310,0.568187,15.7294,08/10.0/1999,2000,g 10.5,4.8
# From MPC 31662
47P/Ashbrook-Jackson,e,12.5135,2.6156,348.7915,3.820583,0.1319805,0.396414,292.0002,08/10.0/1999,2000,g  1.0,11.2
# From unp
49P/Arend-Rigaux,e,18.2897,121.7166,330.5729,3.524340,0.1489661,0.611749,58.5981,08/10.0/1999,2000,g 11.3,4.4
# From MPC 27082
50P/Arend,e,19.1790,355.3828,48.9945,4.081137,0.1195452,0.530353,0.7444,08/10.0/1999,2000,g  9.5,6.0
# From unp
59P/Kearns-Kwee,e,9.3518,313.0374,127.4407,4.469226,0.1043171,0.476616,356.1077,08/10.0/1999,2000,g  7.0,6.0
# From MPC 31664
61P/Shajn-Schaldach,e,6.0837,166.8935,216.4913,3.819400,0.1320418,0.389496,275.7984,08/10.0/1999,2000,g  6.0,10.0
# From MPC 27082
63P/Wild 1,e,19.9345,358.5244,167.9993,5.595782,0.0744583,0.649584,349.6174,08/10.0/1999,2000,g 10.5,6.0
# From MPC 29285
65P/Gunn,e,10.3831,68.4234,196.3870,3.592658,0.1447373,0.316527,161.1518,08/10.0/1999,2000,g  5.0,6.0
# From MPC 29882
70P/Kojima,e,6.5992,119.4699,1.8348,3.677882,0.1397357,0.456054,303.8861,08/10.0/1999,2000,g 11.0,6.0
# From MPC 31662
74P/Smirnova-Chernykh,e,6.6524,77.1581,86.5770,4.161511,0.1160987,0.147747,299.1313,08/10.0/1999,2000,g  5.0,6.0
# From MPC 29881
76P/West-Kohoutek-Ikemura,e,30.4965,84.1394,0.0998,3.466691,0.1526973,0.539773,314.7504,08/10.0/1999,2000,g  8.0,12.0
# From unp
77P/Longmore,e,24.5370,15.4191,195.2669,3.623464,0.1428954,0.352260,199.1763,08/10.0/1999,2000,g  7.0,8.0
# From MPC 31664
82P/Gehrels 3,e,1.0910,240.5705,233.0125,4.125961,0.1176024,0.133007,267.0755,08/10.0/1999,2000,g  5.0,8.0
# From MPC 27082
84P/Giclas,e,7.2816,112.4905,276.4167,3.645301,0.1416133,0.493638,357.8571,08/10.0/1999,2000,g  9.5,8.0
# From MPC 29882
87P/Bus,e,2.5743,182.2068,24.1704,3.487593,0.1513266,0.374570,283.1379,08/10.0/1999,2000,g  7.2,10.0
# From MPC 31205
88P/Howell,e,4.3996,57.6574,234.8593,3.143692,0.1768252,0.553112,56.0187,08/10.0/1999,2000,g 11.0,6.0
# From MPC 20775
99P/Kowal 1,e,4.3920,28.7577,173.7062,6.068043,0.0659373,0.228387,180.0228,08/10.0/1999,2000,g  4.5,6.0
# From MPC 27081
102P/Shoemaker 1,e,26.2569,339.9646,18.6521,3.744628,0.1360163,0.471443,19.8702,08/10.0/1999,2000,g  6.5,8.0
# From MPC 35815
106P/Schuster,e,20.1381,50.5913,355.8708,3.759730,0.1351977,0.587831,342.6609,08/10.0/1999,2000,g 14.0,4.8
# From MPC 29881
108P/Ciffreo,e,13.0925,53.7239,358.0725,3.743721,0.1360658,0.542378,325.6457,08/10.0/1999,2000,g  8.0,12.0
# From MPC 31663
110P/Hartley 3,e,11.6835,287.8601,168.2260,3.610519,0.1436645,0.314597,275.1336,08/10.0/1999,2000,g  1.0,12.0
# From MPC 35815
114P/Wiseman-Skiff,e,18.2888,271.0819,172.8175,3.539645,0.1480010,0.556643,337.0980,08/10.0/1999,2000,g 11.5,6.0
# From MPC 30064
116P/Wild 4,e,3.7166,21.7035,173.6966,3.437700,0.1546330,0.391650,166.9518,08/10.0/1999,2000,g  2.5,10.0
# From MPC 27080
117P/Helin-Roman-Alu 1,e,9.8283,71.1679,211.8952,4.465956,0.1044317,0.182802,93.7254,08/10.0/1999,2000,g  2.5,8.0
# From MPC 34422
124P/Mrkos,e,31.4947,1.5067,181.3646,3.200030,0.1721761,0.544941,173.8154,08/10.0/1999,2000,g 13.5,2.8
# From MPC 30632
128P/Shoemaker-Holt 1,e,4.3617,214.5041,210.3539,4.494977,0.1034220,0.321950,64.8559,08/10.0/1999,2000,g  8.5,4.0
# From MPC 30739
129P/Shoemaker-Levy 3,e,5.0074,303.6882,181.3421,3.746578,0.1359102,0.248257,71.1196,08/10.0/1999,2000,g 11.0,4.0
# From MPC 31205
134P/Kowal-Vavrova,e,4.3455,202.2889,18.6919,6.233097,0.0633356,0.586845,16.7343,08/10.0/1999,2000,g 11.5,4.0
# From MPC 31894
136P/Mueller 3,e,9.4058,137.8842,225.3167,4.232601,0.1131861,0.288880,16.2405,08/10.0/1999,2000,g 11.0,4.0
# From MPC 35208
137P/Shoemaker-Levy 2,e,4.6569,234.7563,142.0203,4.444034,0.1052054,0.579523,341.0803,08/10.0/1999,2000,g 11.0,4.0
# From MPC 33190
139P/Vaisala-Oterma,e,2.3339,242.4648,165.6016,4.497434,0.1033372,0.247905,32.5458,08/10.0/1999,2000,g  9.5,4.0
# From MPC 35815
141P/Machholz 2,e,12.8119,246.1390,149.2984,3.008682,0.1888599,0.751069,337.0959,08/10.0/1999,2000,g 12.0,12.0
# From MPC 35815
142P/Ge-Wang,e,12.1724,177.1395,177.3784,4.997963,0.0882093,0.500522,4.3703,08/10.0/1999,2000,g  8.5,6.0
# From MPC 29881
P/1986 W1 (Lovas 2),e,1.5289,283.5788,71.5222,3.571351,0.1460344,0.592874,328.6525,08/10.0/1999,2000,g  8.5,10.0
# From MPC 27081
P/1991 V1 (Shoemaker-Levy 6),e,16.8921,37.8362,333.3565,3.848541,0.1305449,0.705216,13.0060,08/10.0/1999,2000,g 13.0,6.0
# From MPC 34423
P/1993 K2 (Helin-Lawrence),e,9.8743,92.0218,163.9532,4.483221,0.1038290,0.307052,232.0902,08/10.0/1999,2000,g 10.0,3.2
# From MPC 31663
P/1993 X1 (Kushida-Muramatsu),e,2.3670,93.7108,348.0177,3.799663,0.1330719,0.276236,276.0840,08/10.0/1999,2000,g  5.5,8.0
# From MPC 35204
C/1995 O1 (Hale-Bopp),e,89.4248,282.3808,130.5540,180.4559,0.0004066,0.994938,0.3500,08/10.0/1999,2000,g -2.0,4.0
# From MPC 31893
P/1996 A1 (Jedicke),e,6.6290,249.1571,223.8664,7.176015,0.0512719,0.436429,74.6622,08/10.0/1999,2000,g  7.0,4.0
# From MPC 35204
C/1997 BA6 (Spacewatch),e,72.7145,317.6682,285.9365,3274,0.0000053,0.998951,359.9994,08/10.0/1999,2000,g 10.0,2.0
# From MPC 30957
C/1997 D1 (Mueller),h,10/11.3744/1997,141.8830,279.2356,185.0166,1.000210,2.248752,2000,7.5,4.0
# From MPC 31347
C/1997 G2 (Montani),e,69.8471,55.7944,239.9035,507.0512,0.0000863,0.993913,0.0415,08/10.0/1999,2000,g  8.5,4.0
# From MPC 35204
C/1997 J2 (Meunier-Dupouy),h,03/10.4694/1998,91.2282,148.8472,122.7019,1.001065,3.051925,2000,3.5,4.0
# From MPC 35205
C/1997 L1 (Zhu-Balam),e,73.0162,233.3301,346.3019,1528,0.0000165,0.996794,0.0164,08/10.0/1999,2000,g  6.5,4.0
# From MPC 35205
P/1997 T3 (Lagerkvist-Carsenty),e,4.8350,63.1974,334.3078,6.682333,0.0570574,0.365277,29.4435,08/10.0/1999,2000,g 13.0,2.0
# From MPC 31205
P/1997 V1 (Larsen),e,12.0896,234.8323,132.9699,4.931149,0.0900082,0.331746,62.4237,08/10.0/1999,2000,g  9.0,4.0
# From MPC 32168
C/1998 G1 (LINEAR),e,109.7090,341.3885,236.3467,12.08303,0.0234661,0.823420,6.2498,08/10.0/1999,2000,g 13.0,2.0
# From MPC 32168
C/1998 J1 (SOHO),p,05/08.6168/1998,62.9296,110.5409,0.153214,351.6687,2000,8.0,4.0
# From MPC 33451
C/1998 K1 (Mueller),e,35.6380,18.2557,165.2163,62.03021,0.0020174,0.944928,0.6922,08/10.0/1999,2000,g  7.5,4.0
# From MPC 35206
C/1998 K2 (LINEAR),e,64.4592,68.7733,221.4385,2784,0.0000067,0.999165,0.0023,08/10.0/1999,2000,g  8.5,4.0
# From MPC 35553
C/1998 M1 (LINEAR),e,20.3844,256.0635,19.4342,427.8835,0.0001114,0.992712,0.0318,08/10.0/1999,2000,g  8.0,4.0
# From MPC 35553
C/1998 M2 (LINEAR),e,60.1830,260.8742,37.2657,1102,0.0000270,0.997526,0.0098,08/10.0/1999,2000,g  9.0,4.0
# From MPC 34733
C/1998 M3 (Larsen),h,07/16.9763/1998,113.4355,255.5389,20.8287,1.002391,5.767912,2000,6.5,4.0
# From MPC 34733
C/1998 M5 (LINEAR),e,82.2264,333.3780,101.2870,450.8666,0.0001030,0.996136,0.0203,08/10.0/1999,2000,g  6.0,4.0
# From MPC 33188
C/1998 M6 (Montani),e,91.5469,306.6071,9.1864,5843,0.0000022,0.998977,0.0007,08/10.0/1999,2000,g  7.0,4.0
# From MPC 34420
C/1998 P1 (Williams),e,145.7238,156.3689,294.4218,2393,0.0000084,0.999521,0.0025,08/10.0/1999,2000,g  7.5,4.0
# From MPC 33650
P/1998 QP54 (LONEOS-Tucker),e,17.7428,341.9253,30.0912,4.196857,0.1146352,0.551579,35.2669,08/10.0/1999,2000,g 15.0,2.0
# From MPC 33650
P/1998 S1 (LINEAR-Mueller),e,10.5593,359.1788,26.3493,4.364744,0.1080851,0.416134,30.3011,08/10.0/1999,2000,g 11.5,4.0
# From MPC 35206
C/1998 T1 (LINEAR),e,170.1599,153.3580,226.3556,1667,0.0000145,0.999120,0.0007,08/10.0/1999,2000,g  8.0,4.0
# From MPC 33650
C/1998 U1 (LINEAR),h,05/04.6925/1998,156.5491,210.4832,125.2004,1.002001,3.995588,2000,9.5,4.0
# From MPC 34421
P/1998 U3 (Jager),e,19.1403,303.5406,180.8984,6.067957,0.0659387,0.648337,10.0835,08/10.0/1999,2000,g  6.5,4.0
# From MPC 33857
P/1998 U4 (Spahr),e,31.5183,181.7144,251.8049,5.570412,0.0749675,0.310060,12.3054,08/10.0/1999,2000,g  8.0,4.0
# From MPC 35206
C/1998 U5 (LINEAR),e,131.7670,66.6505,51.1395,102.5616,0.0009489,0.987943,0.2194,08/10.0/1999,2000,g  8.0,4.0
# From MPC 33651
P/1998 VS24 (LINEAR),e,5.0313,159.2034,244.5128,4.501091,0.1032113,0.243381,28.9215,08/10.0/1999,2000,g 13.0,2.0
# From MPC 35207
C/1998 W3 (LINEAR),h,10/06.6674/1998,129.1854,123.9149,6.8811,1.000959,4.914775,2000,6.0,4.0
# From MPC 34421
P/1998 Y2 (Li),e,24.3244,91.8304,318.9944,6.119430,0.0651085,0.588367,15.3111,08/10.0/1999,2000,g  9.5,4.0
# From MPC 33858
C/1999 A1 (Tilbrook),e,89.4869,259.1205,232.6699,179.8417,0.0004087,0.995937,0.0786,08/10.0/1999,2000,g 12.0,4.0
# From MPC 34734
C/1999 E1 (Li),e,46.8838,127.8337,329.7474,16.33036,0.0149352,0.759963,2.8429,08/10.0/1999,2000,g  6.5,4.0
# From MPC 34734
C/1999 F1 (Catalina),h,02/13.2059/2002,92.0148,20.0347,255.2233,1.000427,5.779280,2000,9.5,2.0
# From MPC 35553
